STARLINK-34215          
1 64252U 25119V   25289.01725600  .00026059  00000+0  95207-3 0  9991
2 64252  42.9996  44.0698 0001084 256.7545 103.3185 15.27617350 22044
STARLINK-33893          
1 64253U 25119W   25289.03269231  .00044587  00000+0  16198-2 0  9994
2 64253  43.0034  44.1890 0000956 280.0707  80.0037 15.27584231 22040
STARLINK-34183          
1 64254U 25119X   25289.04296927  .00029786  00000+0  10871-2 0  9994
2 64254  43.0039  44.2659 0000645 294.6140  65.4644 15.27592506 22042
STARLINK-34211          
1 64255U 25119Y   25289.04682275  .00031401  00000+0  11448-2 0  9998
2 64255  43.0027  44.2934 0001765 271.1705  88.8945 15.27607767 22046
STARLINK-34329          
1 64256U 25120A   25289.11555292  .00031023  00000+0  10547-2 0  9996
2 64256  53.1577  68.0568 0001874  84.7989 275.3225 15.30213701 21799
STARLINK-34352          
1 64257U 25120B   25288.41714087  .00039634  00000+0  13422-2 0  9999
2 64257  53.1559  71.5169 0001027  61.8353 298.2752 15.30224385 21628
STARLINK-34308          
1 64258U 25120C   25288.79636056  .00036230  00000+0  12287-2 0  9997
2 64258  53.1629  69.6166 0000902  69.6133 290.4965 15.30219307 21689
STARLINK-34306          
1 64259U 25120D   25289.10817161  .00046073  00000+0  15556-2 0  9990
2 64259  53.1602  68.0075 0002960  79.2151 280.9182 15.30248074 21730
STARLINK-34281          
1 64260U 25120E   25288.66889872  .00064097  00000+0  21538-2 0  9993
2 64260  53.1589  70.2416 0001255  93.9638 266.1506 15.30258276 21662
STARLINK-34297          
1 64261U 25120F   25288.86800829  .00041749  00000+0  14131-2 0  9991
2 64261  53.1580  69.3531 0000904  63.0563 297.0530 15.30217109 21644
STARLINK-34325          
1 64262U 25120G   25289.08928329  .00047288  00000+0  15984-2 0  9994
2 64262  53.1580  68.5977 0001850  78.1750 281.9458 15.30203501 21772
STARLINK-34276          
1 64263U 25120H   25289.11977264  .00039737  00000+0  13457-2 0  9994
2 64263  53.1610  68.0798 0002122  86.8548 273.2696 15.30221770 21784
STARLINK-34333          
1 64264U 25120J   25289.10605530  .00044179  00000+0  14945-2 0  9997
2 64264  53.1570  67.9969 0001807  77.8150 282.3053 15.30207674 21736
STARLINK-34240          
1 64265U 25120K   25289.09983340  .00059193  00000+0  19943-2 0  9999
2 64265  53.1582  68.6655 0001226  83.1452 276.9688 15.30207786 21771
STARLINK-34315          
1 64266U 25120L   25288.82274763  .00045091  00000+0  15250-2 0  9991
2 64266  53.1598  69.7808 0000758  87.2838 272.8250 15.30206797 21673
STARLINK-34321          
1 64267U 25120M   25289.11027517  .00041830  00000+0  14166-2 0  9990
2 64267  53.1581  68.0197 0002099  82.1700 277.9539 15.30198088 21782
STARLINK-34319          
1 64268U 25120N   25289.12820036  .00016402  00000+0  56459-3 0  9998
2 64268  53.1588  68.1281 0001135  86.6966 273.4165 15.30204524 21787
STARLINK-34298          
1 64269U 25120P   25289.11344086  .00041461  00000+0  14037-2 0  9992
2 64269  53.1599  68.0409 0001723  82.1377 277.9820 15.30211692 21681
STARLINK-34219          
1 64270U 25120Q   25288.70055747  .00060726  00000+0  20433-2 0  9993
2 64270  53.1579  70.4364 0000979  91.6961 268.4152 15.30239242 21712
STARLINK-34342          
1 64271U 25120R   25288.81219094  .00035284  00000+0  11967-2 0  9996
2 64271  53.1528  69.7147 0000243  52.2628 307.8394 15.30229500 21682
STARLINK-34001          
1 64272U 25120S   25289.09667139  .00046219  00000+0  15626-2 0  9991
2 64272  53.1580  68.6490 0002479  79.0811 281.0468 15.30205369 21675
STARLINK-34334          
1 64273U 25120T   25288.77631568  .00035746  00000+0  12128-2 0  9990
2 64273  53.1585  69.4917 0001044  81.1541 278.9578 15.30211866 21738
STARLINK-34272          
1 64274U 25120U   25288.69844700  .00029393  00000+0  10001-2 0  9995
2 64274  53.1575  70.4300 0001297 105.7116 254.4028 15.30216615 21610
STARLINK-34293          
1 64275U 25120V   25289.09349736  .00038449  00000+0  13024-2 0  9990
2 64275  53.1575  68.6219 0000218 254.9521 105.1456 15.30228560 21718
STARLINK-34350          
1 64276U 25120W   25289.11660986  .00025392  00000+0  86548-3 0  9992
2 64276  53.1579  68.0557 0002297  80.2568 279.8692 15.30237730 21789
STARLINK-34264          
1 64277U 25120X   25288.81641240  .00034583  00000+0  11738-2 0  9991
2 64277  53.1531  69.7378 0000649  85.8763 274.2311 15.30214427 21677
STARLINK-34353          
1 64278U 25120Y   25289.08716153  .00053973  00000+0  18192-2 0  9993
2 64278  53.1579  68.5863 0001006 323.4481  36.6451 15.30237287 21777
STARLINK-34377          
1 64279U 25120Z   25289.12187416  .00034590  00000+0  11734-2 0  9992
2 64279  53.1638  68.0873 0000450 327.9664  32.1310 15.30232392 21782
STARLINK-34359          
1 64280U 25120AA  25288.69105937  .00030745  00000+0  10452-2 0  9997
2 64280  53.1576  70.3750 0001164  88.4245 271.6889 15.30221842 21714
STARLINK-34366          
1 64281U 25120AB  25288.67523007  .00049498  00000+0  16690-2 0  9993
2 64281  53.1579  70.2776 0002827  84.9558 275.1765 15.30260576 21663
STARLINK-34381          
1 64282U 25120AC  25288.68367855  .00036666  00000+0  12431-2 0  9994
2 64282  53.1604  70.3313 0000175  31.8426 328.2585 15.30222556 21699
STARLINK-34448          
1 64291U 25123A   25289.12340661  .00007595  00000+0  64367-3 0  9998
2 64291  70.0012 198.9753 0001445 287.2545  72.8456 14.98331149 21180
STARLINK-34362          
1 64292U 25123B   25289.13572251 -.00082458  00000+0 -69593-2 0  9990
2 64292  69.9996 199.0112 0004043 276.7466  83.3233 14.98465040 21180
STARLINK-34428          
1 64293U 25123C   25289.16911132  .00009072  00000+0  76676-3 0  9999
2 64293  70.0012 198.7277 0002996 273.1060  86.9756 14.98346238 21194
STARLINK-34388          
1 64294U 25123D   25289.14425830  .00007661  00000+0  64893-3 0  9993
2 64294  70.0015 199.0399 0002776 270.6046  89.4795 14.98343038 21184
STARLINK-34424          
1 64295U 25123E   25289.15245189  .00006455  00000+0  54831-3 0  9993
2 64295  70.0005 199.0617 0002523 275.2880  84.7991 14.98327884 21181
STARLINK-34443          
1 64296U 25123F   25289.11904766  .00007000  00000+0  59367-3 0  9999
2 64296  70.0017 198.9548 0002995 269.7611  90.3204 14.98342840 21188
STARLINK-34369          
1 64297U 25123G   25288.73118223  .00018003  00000+0  15126-2 0  9991
2 64297  70.0003 200.0045 0002601 280.1375  79.9490 14.98332162 19902
STARLINK-34391          
1 64298U 25123H   25289.08981206 -.00005859  00000+0 -48358-3 0  9991
2 64298  70.0002 198.8506 0003075 267.3842  92.6966 14.98333828 19966
STARLINK-34378          
1 64299U 25123J   25289.11922333  .00013745  00000+0  11573-2 0  9991
2 64299  70.0010 198.9577 0003119 274.3310  85.7493 14.98336368 19962
STARLINK-34376          
1 64300U 25123K   25289.14409370  .00009161  00000+0  77422-3 0  9991
2 64300  70.0010 199.0429 0002780 267.8506  92.2335 14.98346642 19964
STARLINK-34372          
1 64301U 25123L   25289.12741652  .00002762  00000+0  23919-3 0  9994
2 64301  70.0035 198.9879 0000893 281.4576  78.6482 14.98325456 19962
STARLINK-34379          
1 64302U 25123M   25289.15131839  .00048711  00000+0  11080-2 0  9997
2 64302  70.0016 195.0547 0003101 265.6880  94.3947 15.42730045 20067
STARLINK-34356          
1 64303U 25123N   25289.16076193  .00011566  00000+0  97564-3 0  9990
2 64303  70.0011 198.6972 0002845 269.0415  91.0418 14.98327137 19979
STARLINK-34360          
1 64304U 25123P   25289.14008477  .00007573  00000+0  64158-3 0  9995
2 64304  70.0018 199.0228 0002525 273.6829  86.4042 14.98344450 19968
STARLINK-34383          
1 64305U 25123Q   25289.15677015 -.00008427  00000+0 -69943-3 0  9995
2 64305  70.0005 199.0790 0002972 268.7023  91.3795 14.98322358 19969
STARLINK-34355          
1 64306U 25123R   25289.15260727  .00009187  00000+0  77639-3 0  9997
2 64306  70.0007 199.0673 0002650 270.2357  89.8499 14.98347145 19967
STARLINK-34380          
1 64307U 25123S   25289.14812163  .01104203  00000+0  82702-1 0  9995
2 64307  70.0035 199.0514 0004810 185.9954 174.1149 14.99956501 19961
STARLINK-34374          
1 64308U 25123T   25289.13591030  .00007282  00000+0  61723-3 0  9992
2 64308  70.0015 199.0081 0002721 268.7790  91.3057 14.98343700 19964
STARLINK-34370          
1 64309U 25123U   25289.19432034  .00010302  00000+0  86943-3 0  9995
2 64309  70.0012 198.8092 0002449 270.5100  89.5778 14.98351242 19974
STARLINK-34357          
1 64310U 25123V   25289.08150844  .00012856  00000+0  10827-2 0  9994
2 64310  70.0010 199.2261 0002447 274.0002  86.0877 14.98349931 19957
STARLINK-34368          
1 64311U 25123W   25289.13993235  .00011756  00000+0  99145-3 0  9999
2 64311  70.0009 199.0178 0002679 267.9167  92.1685 14.98328328 19964
STARLINK-34384          
1 64312U 25123X   25289.13157659  .00013571  00000+0  11418-2 0  9995
2 64312  70.0016 198.9976 0002762 279.7420  80.3427 14.98369625 19961
STARLINK-34358          
1 64313U 25123Y   25289.12322255  .00010589  00000+0  89343-3 0  9990
2 64313  70.0015 198.9680 0002332 266.6981  93.3911 14.98349785 19960
STARLINK-34354          
1 64314U 25123Z   25289.11487394  .00009861  00000+0  83266-3 0  9995
2 64314  70.0015 198.9378 0002797 273.0636  87.0203 14.98348001 19963
STARLINK-34387          
1 64315U 25123AA  25289.10652681  .00010258  00000+0  86590-3 0  9993
2 64315  70.0004 198.9084 0002858 267.1433  92.9399 14.98347498 19963
STARLINK-33590          
1 64316U 25123AB  25289.11503961  .00010292  00000+0  86871-3 0  9991
2 64316  70.0008 198.9366 0002887 274.4374  85.6455 14.98348298 19969
STARLINK-11736 [DTC]    
1 64317U 25124A   25288.99058539  .00276192  00000+0  20784-2 0  9997
2 64317  42.9991 181.7134 0001047 188.9792 171.1057 15.70917820 20079
STARLINK-11673 [DTC]    
1 64318U 25124B   25289.09652227  .00231855  00000+0  17433-2 0  9998
2 64318  43.0000 180.7766 0002122 295.7331  64.3318 15.71073034 20090
